[{"OBJECT_NAME":"ONEWEB-0056","OBJECT_ID":"2020-008AE","EPOCH":"2026-04-24T05:33:29.078784","MEAN_MOTION":13.10375274,"ECCENTRICITY":0.0001702,"INCLINATION":87.8859,"RA_OF_ASC_NODE":46.9977,"ARG_OF_PERICENTER":78.9062,"MEAN_ANOMALY":281.2256,"EPHEMERIS_TYPE":0,"CLASSIFICATION_TYPE":"U","NORAD_CAT_ID":45159,"ELEMENT_SET_NO":999,"REV_AT_EPOCH":30111,"BSTAR":-0.0014108,"MEAN_MOTION_DOT":-4.8e-06,"MEAN_MOTION_DDOT":0.0},{"OBJECT_NAME":"ONEWEB-0057","OBJECT_ID":"2020-008AF","EPOCH":"2026-04-24T05:44:27.224736","MEAN_MOTION":13.10375509,"ECCENTRICITY":0.0001923,"INCLINATION":87.8854,"RA_OF_ASC_NODE":47.0054,"ARG_OF_PERICENTER":94.6045,"MEAN_ANOMALY":265.5302,"EPHEMERIS_TYPE":0,"CLASSIFICATION_TYPE":"U","NORAD_CAT_ID":45160,"ELEMENT_SET_NO":999,"REV_AT_EPOCH":30128,"BSTAR":-0.00034699000000000004,"MEAN_MOTION_DOT":-1.08e-06,"MEAN_MOTION_DDOT":0.0},{"OBJECT_NAME":"ONEWEB-0058","OBJECT_ID":"2020-008AG","EPOCH":"2026-04-24T05:25:18.725952","MEAN_MOTION":13.10374501,"ECCENTRICITY":0.0002133,"INCLINATION":87.887,"RA_OF_ASC_NODE":47.0153,"ARG_OF_PERICENTER":74.5942,"MEAN_ANOMALY":285.5421,"EPHEMERIS_TYPE":0,"CLASSIFICATION_TYPE":"U","NORAD_CAT_ID":45161,"ELEMENT_SET_NO":999,"REV_AT_EPOCH":30135,"BSTAR":-0.0017491000000000002,"MEAN_MOTION_DOT":-5.98e-06,"MEAN_MOTION_DDOT":0.0},{"OBJECT_NAME":"ONEWEB-0059","OBJECT_ID":"2020-008AH","EPOCH":"2026-04-24T05:20:20.006592","MEAN_MOTION":13.10373368,"ECCENTRICITY":0.00021,"INCLINATION":87.8867,"RA_OF_ASC_NODE":47.0159,"ARG_OF_PERICENTER":81.1925,"MEAN_ANOMALY":278.944,"EPHEMERIS_TYPE":0,"CLASSIFICATION_TYPE":"U","NORAD_CAT_ID":45162,"ELEMENT_SET_NO":999,"REV_AT_EPOCH":30125,"BSTAR":-0.0017576,"MEAN_MOTION_DOT":-6.01e-06,"MEAN_MOTION_DDOT":0.0},{"OBJECT_NAME":"ONEWEB-0062","OBJECT_ID":"2020-008AJ","EPOCH":"2026-04-24T05:57:24.314112","MEAN_MOTION":13.10376806,"ECCENTRICITY":0.000205,"INCLINATION":87.8854,"RA_OF_ASC_NODE":46.996,"ARG_OF_PERICENTER":66.9155,"MEAN_ANOMALY":293.2188,"EPHEMERIS_TYPE":0,"CLASSIFICATION_TYPE":"U","NORAD_CAT_ID":45163,"ELEMENT_SET_NO":999,"REV_AT_EPOCH":30112,"BSTAR":0.0009205799999999999,"MEAN_MOTION_DOT":3.34e-06,"MEAN_MOTION_DDOT":0.0},{"OBJECT_NAME":"ONEWEB-0065","OBJECT_ID":"2020-008AK","EPOCH":"2026-04-24T06:41:25.128384","MEAN_MOTION":13.10369135,"ECCENTRICITY":0.0001694,"INCLINATION":87.8842,"RA_OF_ASC_NODE":46.9975,"ARG_OF_PERICENTER":89.1645,"MEAN_ANOMALY":270.9677,"EPHEMERIS_TYPE":0,"CLASSIFICATION_TYPE":"U","NORAD_CAT_ID":45164,"ELEMENT_SET_NO":999,"REV_AT_EPOCH":30082,"BSTAR":0.00054479,"MEAN_MOTION_DOT":2.03e-06,"MEAN_MOTION_DDOT":0.0},{"OBJECT_NAME":"ONEWEB-0066","OBJECT_ID":"2020-020A","EPOCH":"2026-04-24T04:55:02.298144","MEAN_MOTION":13.11418743,"ECCENTRICITY":0.0002012,"INCLINATION":87.8931,"RA_OF_ASC_NODE":31.8019,"ARG_OF_PERICENTER":79.4723,"MEAN_ANOMALY":280.6631,"EPHEMERIS_TYPE":0,"CLASSIFICATION_TYPE":"U","NORAD_CAT_ID":45424,"ELEMENT_SET_NO":999,"REV_AT_EPOCH":29560,"BSTAR":0.0007615100000000001,"MEAN_MOTION_DOT":2.83e-06,"MEAN_MOTION_DDOT":0.0},{"OBJECT_NAME":"ONEWEB-0067","OBJECT_ID":"2020-020B","EPOCH":"2026-04-24T04:00:02.847168","MEAN_MOTION":13.11419297,"ECCENTRICITY":0.0001771,"INCLINATION":87.8945,"RA_OF_ASC_NODE":31.7228,"ARG_OF_PERICENTER":87.4515,"MEAN_ANOMALY":272.6815,"EPHEMERIS_TYPE":0,"CLASSIFICATION_TYPE":"U","NORAD_CAT_ID":45425,"ELEMENT_SET_NO":999,"REV_AT_EPOCH":29565,"BSTAR":-0.0006707600000000001,"MEAN_MOTION_DOT":-2.25e-06,"MEAN_MOTION_DDOT":0.0},{"OBJECT_NAME":"ONEWEB-0080","OBJECT_ID":"2020-020C","EPOCH":"2026-04-24T03:59:04.805376","MEAN_MOTION":13.11414675,"ECCENTRICITY":0.0001947,"INCLINATION":87.8933,"RA_OF_ASC_NODE":31.8023,"ARG_OF_PERICENTER":69.3742,"MEAN_ANOMALY":290.7594,"EPHEMERIS_TYPE":0,"CLASSIFICATION_TYPE":"U","NORAD_CAT_ID":45426,"ELEMENT_SET_NO":999,"REV_AT_EPOCH":29562,"BSTAR":-0.00057573,"MEAN_MOTION_DOT":-1.91e-06,"MEAN_MOTION_DDOT":0.0},{"OBJECT_NAME":"ONEWEB-0090","OBJECT_ID":"2020-020D","EPOCH":"2026-04-24T04:40:34.368672","MEAN_MOTION":13.11419321,"ECCENTRICITY":0.0001857,"INCLINATION":87.8934,"RA_OF_ASC_NODE":31.8016,"ARG_OF_PERICENTER":76.6922,"MEAN_ANOMALY":283.4413,"EPHEMERIS_TYPE":0,"CLASSIFICATION_TYPE":"U","NORAD_CAT_ID":45427,"ELEMENT_SET_NO":999,"REV_AT_EPOCH":29559,"BSTAR":-0.00050096,"MEAN_MOTION_DOT":-1.65e-06,"MEAN_MOTION_DDOT":0.0},{"OBJECT_NAME":"ONEWEB-0061","OBJECT_ID":"2020-020E","EPOCH":"2026-04-24T05:26:35.307456","MEAN_MOTION":13.11415988,"ECCENTRICITY":0.0001889,"INCLINATION":87.8928,"RA_OF_ASC_NODE":31.7807,"ARG_OF_PERICENTER":77.8705,"MEAN_ANOMALY":282.2635,"EPHEMERIS_TYPE":0,"CLASSIFICATION_TYPE":"U","NORAD_CAT_ID":45428,"ELEMENT_SET_NO":999,"REV_AT_EPOCH":29555,"BSTAR":0.0012542,"MEAN_MOTION_DOT":4.57e-06,"MEAN_MOTION_DDOT":0.0},{"OBJECT_NAME":"ONEWEB-0081","OBJECT_ID":"2020-020F","EPOCH":"2026-04-24T04:59:53.433312","MEAN_MOTION":13.11418662,"ECCENTRICITY":0.0002017,"INCLINATION":87.8925,"RA_OF_ASC_NODE":31.7976,"ARG_OF_PERICENTER":83.3963,"MEAN_ANOMALY":276.7395,"EPHEMERIS_TYPE":0,"CLASSIFICATION_TYPE":"U","NORAD_CAT_ID":45429,"ELEMENT_SET_NO":999,"REV_AT_EPOCH":29566,"BSTAR":-0.00019175,"MEAN_MOTION_DOT":-5.5e-07,"MEAN_MOTION_DDOT":0.0},{"OBJECT_NAME":"ONEWEB-0069","OBJECT_ID":"2020-020G","EPOCH":"2026-04-24T04:44:02.799168","MEAN_MOTION":13.11419324,"ECCENTRICITY":0.0001882,"INCLINATION":87.8929,"RA_OF_ASC_NODE":31.7954,"ARG_OF_PERICENTER":81.2703,"MEAN_ANOMALY":278.8638,"EPHEMERIS_TYPE":0,"CLASSIFICATION_TYPE":"U","NORAD_CAT_ID":45430,"ELEMENT_SET_NO":999,"REV_AT_EPOCH":29559,"BSTAR":-0.00038881,"MEAN_MOTION_DOT":-1.25e-06,"MEAN_MOTION_DDOT":0.0},{"OBJECT_NAME":"ONEWEB-0031","OBJECT_ID":"2020-020H","EPOCH":"2026-04-24T04:03:45.042912","MEAN_MOTION":13.11415387,"ECCENTRICITY":0.0001881,"INCLINATION":87.8928,"RA_OF_ASC_NODE":31.8159,"ARG_OF_PERICENTER":73.1298,"MEAN_ANOMALY":287.0036,"EPHEMERIS_TYPE":0,"CLASSIFICATION_TYPE":"U","NORAD_CAT_ID":45431,"ELEMENT_SET_NO":999,"REV_AT_EPOCH":29557,"BSTAR":-0.0010893,"MEAN_MOTION_DOT":-3.73e-06,"MEAN_MOTION_DDOT":0.0},{"OBJECT_NAME":"ONEWEB-0027","OBJECT_ID":"2020-020J","EPOCH":"2026-04-24T05:44:37.489056","MEAN_MOTION":13.17649018,"ECCENTRICITY":0.0001557,"INCLINATION":87.9194,"RA_OF_ASC_NODE":16.5647,"ARG_OF_PERICENTER":69.7209,"MEAN_ANOMALY":290.409,"EPHEMERIS_TYPE":0,"CLASSIFICATION_TYPE":"U","NORAD_CAT_ID":45432,"ELEMENT_SET_NO":999,"REV_AT_EPOCH":29925,"BSTAR":7.3139e-05,"MEAN_MOTION_DOT":4.1e-07,"MEAN_MOTION_DDOT":0.0},{"OBJECT_NAME":"ONEWEB-0064","OBJECT_ID":"2020-020K","EPOCH":"2026-04-24T04:01:18.486912","MEAN_MOTION":13.11415405,"ECCENTRICITY":0.0001745,"INCLINATION":87.8925,"RA_OF_ASC_NODE":31.8066,"ARG_OF_PERICENTER":72.8766,"MEAN_ANOMALY":287.2553,"EPHEMERIS_TYPE":0,"CLASSIFICATION_TYPE":"U","NORAD_CAT_ID":45433,"ELEMENT_SET_NO":999,"REV_AT_EPOCH":29560,"BSTAR":-0.0006117399999999999,"MEAN_MOTION_DOT":-2.04e-06,"MEAN_MOTION_DDOT":0.0}]