ONEWEB-0056             
1 45159U 20008AE  26114.23158656 -.00000480  00000+0 -14108-2 0  9993
2 45159  87.8859  46.9977 0001702  78.9062 281.2256 13.10375274301110
ONEWEB-0057             
1 45160U 20008AF  26114.23920399 -.00000108  00000+0 -34699-3 0  9991
2 45160  87.8854  47.0054 0001923  94.6045 265.5302 13.10375509301282
ONEWEB-0058             
1 45161U 20008AG  26114.22591118 -.00000598  00000+0 -17491-2 0  9997
2 45161  87.8870  47.0153 0002133  74.5942 285.5421 13.10374501301351
ONEWEB-0059             
1 45162U 20008AH  26114.22245378 -.00000601  00000+0 -17576-2 0  9991
2 45162  87.8867  47.0159 0002100  81.1925 278.9440 13.10373368301259
ONEWEB-0062             
1 45163U 20008AJ  26114.24819808  .00000334  00000+0  92058-3 0  9999
2 45163  87.8854  46.9960 0002050  66.9155 293.2188 13.10376806301129
ONEWEB-0065             
1 45164U 20008AK  26114.27876306  .00000203  00000+0  54479-3 0  9999
2 45164  87.8842  46.9975 0001694  89.1645 270.9677 13.10369135300825
ONEWEB-0066             
1 45424U 20020A   26114.20488771  .00000283  00000+0  76151-3 0  9999
2 45424  87.8931  31.8019 0002012  79.4723 280.6631 13.11418743295607
ONEWEB-0067             
1 45425U 20020B   26114.16669962 -.00000225  00000+0 -67076-3 0  9992
2 45425  87.8945  31.7228 0001771  87.4515 272.6815 13.11419297295658
ONEWEB-0080             
1 45426U 20020C   26114.16602784 -.00000191  00000+0 -57573-3 0  9995
2 45426  87.8933  31.8023 0001947  69.3742 290.7594 13.11414675295623
ONEWEB-0090             
1 45427U 20020D   26114.19484223 -.00000165  00000+0 -50096-3 0  9999
2 45427  87.8934  31.8016 0001857  76.6922 283.4413 13.11419321295596
ONEWEB-0061             
1 45428U 20020E   26114.22679754  .00000457  00000+0  12542-2 0  9994
2 45428  87.8928  31.7807 0001889  77.8705 282.2635 13.11415988295558
ONEWEB-0081             
1 45429U 20020F   26114.20825733 -.00000055  00000+0 -19175-3 0  9999
2 45429  87.8925  31.7976 0002017  83.3963 276.7395 13.11418662295660
ONEWEB-0069             
1 45430U 20020G   26114.19725462 -.00000125  00000+0 -38881-3 0  9990
2 45430  87.8929  31.7954 0001882  81.2703 278.8638 13.11419324295591
ONEWEB-0031             
1 45431U 20020H   26114.16927133 -.00000373  00000+0 -10893-2 0  9994
2 45431  87.8928  31.8159 0001881  73.1298 287.0036 13.11415387295574
ONEWEB-0027             
1 45432U 20020J   26114.23932279  .00000041  00000+0  73139-4 0  9994
2 45432  87.9194  16.5647 0001557  69.7209 290.4090 13.17649018299259
ONEWEB-0064             
1 45433U 20020K   26114.16757508 -.00000204  00000+0 -61174-3 0  9995
2 45433  87.8925  31.8066 0001745  72.8766 287.2553 13.11415405295606
